ONEWEB-0415             
1 51624U 22012C   25201.46541520  .00000113  00000+0  28822-3 0  9991
2 51624  87.8819 102.4318 0001923  66.9835 293.1495 13.10376232165847
ONEWEB-0416             
1 51625U 22012D   25201.47704894  .00000580  00000+0  16258-2 0  9995
2 51625  87.8821 102.4475 0001836  75.2842 284.8489 13.10374710165882
ONEWEB-0422             
1 51626U 22012E   25201.91789403 -.00000012  00000+0 -64677-4 0  9996
2 51626  87.9048  71.7858 0002532  82.9071 277.2348 13.17649629170181
ONEWEB-0423             
1 51627U 22012F   25201.91114372 -.00000048  00000+0 -15645-3 0  9993
2 51627  87.9049  71.7952 0001834  83.3239 276.8101 13.17649009171368
ONEWEB-0425             
1 51628U 22012G   25201.71608342  .00000614  00000+0  17237-2 0  9992
2 51628  87.8815 102.3698 0001652  85.2893 274.8423 13.10372223165915
ONEWEB-0428             
1 51629U 22012H   25201.46708146  .00000143  00000+0  37461-3 0  9997
2 51629  87.8820 102.4413 0002069  74.9606 285.1750 13.10376413165843
ONEWEB-0431             
1 51630U 22012J   25201.97155740 -.00000407  00000+0 -12009-2 0  9996
2 51630  87.8807 102.3114 0002276  64.9954 295.1410 13.10371161165964
ONEWEB-0434             
1 51631U 22012K   25201.94847276  .00000575  00000+0  16109-2 0  9995
2 51631  87.8816 102.3580 0001538  96.2789 263.8513 13.10371724165945
